#aV2007 12  9  0  0   .00000000      96 DD+AD WGS84 FIT  NGA
## 1457       .00000000   900.00000000 54443  .0000000000000
+   31     1  2  3  4  5  6  7  8  9 10 11 12 13 14 15 16 17
+         18 19 20 21 22 23 24 25 26 27 28 30 31 32  0  0  0
+          0  0  0  0  0  0  0  0  0  0  0  0  0  0  0  0  0
+          0  0  0  0  0  0  0  0  0  0  0  0  0  0  0  0  0
+          0  0  0  0  0  0  0  0  0  0  0  0  0  0  0  0  0
++         0  0  0  0  0  0  0  0  0  0  0  0  0  0  0  0  0
++         0  0  0  0  0  0  0  0  0  0  0  0  0  0  0  0  0
++         0  0  0  0  0  0  0  0  0  0  0  0  0  0  0  0  0
++         0  0  0  0  0  0  0  0  0  0  0  0  0  0  0  0  0
++         0  0  0  0  0  0  0  0  0  0  0  0  0  0  0  0  0
%c cc cc ccc ccc cccc cccc cccc cccc ccccc ccccc ccccc ccccc
%c cc cc ccc ccc cccc cccc cccc cccc ccccc ccccc ccccc ccccc
%f  0.0000000  0.000000000  0.00000000000  0.000000000000000
%f  0.0000000  0.000000000  0.00000000000  0.000000000000000
%i    0    0    0    0      0      0      0      0         0
%i    0    0    0    0      0      0      0      0         0
/*      NGA, ST. LOUIS,MO.                                  
/*   EPHEMERIS COMPUTED FROM  3 DAYS OF DATA                
/* CCCCCCCCCCCCCCCCCCCCCCCCCCCCCCCCCCCCCCCCCCCCCCCCCCCCCCCCC
/* CCCCCCCCCCCCCCCCCCCCCCCCCCCCCCCCCCCCCCCCCCCCCCCCCCCCCCCCC
*  2007 12  9  1 15   .00000000                                                 
P  1 -14421.506140   1006.006070 -22059.607528    171.392226                    
V  1  -1327.568671 -28435.325841   -498.625938       .024798                    
P  2  23085.890433 -11312.842875  -6156.784379    156.975635                    
V  2  -4185.528180   7275.552050 -30284.689176       .028341                    
P  3 -12701.487636  11958.921480  19695.490385    155.593334                    
V  3  -6712.782497 -24934.421584  11024.781399       .053707                    
P  4  21734.124284  -1499.298840 -15523.062797    -34.463149                    
V  4 -14762.407711  12843.351604 -21663.761279      -.050241                    
P  5  -5632.172947 -17199.334984 -19745.820170    586.269155                    
V  5  23587.036049   6876.198957 -12748.833230       .209657                    
P  6  -7610.220201 -24855.375268   5565.457320    195.588484                    
V  6   2589.265575  -7303.020089 -30065.366567      -.116033                    
P  7 -10247.508227 -23043.160606   8622.038862    -24.389950                    
V  7   1537.532146 -10942.382904 -28548.508108      -.031459                    
P  8  16482.555154   5411.557241  20152.373465   -132.761641                    
V  8 -21166.681634  14431.475188  12919.374031      -.015194                    
P  9  10800.259632 -20304.173854 -13740.238940    100.196950                    
V  9  14229.609795  -8557.778351  25129.648388       .016736                    
P 10  18933.324704  -4705.121429  18052.070792   -167.849554                    
V 10  20158.538165  11215.119357 -17776.583174      -.117924                    
P 11  -6572.685709  22043.559746 -13145.397426     26.457985                    
V 11 -14556.631364   9304.917107  23446.226345       .002846                    
P 12    832.692964 -15841.366768 -21223.632035   -350.819142                    
V 12  24964.614798  10664.123612  -6882.953364      -.011652                    
P 13   6325.615741  24642.262421   7574.501052    226.593869                    
V 13  -1067.648396   9796.422499 -30537.434195       .025546                    
P 14 -13735.195583 -11499.057917 -19542.267034   -314.480981                    
V 14   -942.823840 -24929.048776  15159.270271       .026876                    
P 15   7300.778943 -21615.317494  13643.862019    -72.610363                    
V 15   4123.773925  16931.055494  24644.966359       .025766                    
P 16 -22033.346671   1089.804724  14986.222753    128.185871                    
V 16 -16239.470097  -9702.324690 -23115.805145       .014354                    
P 17  14258.106160  12456.954665 -18668.703705     47.102124                    
V 17    712.892034  23725.915856  16216.701437      -.008598                    
P 18 -16609.588879 -17547.994507  11584.096459   -220.541730                    
V 18  13892.040469   4298.491782  26478.110779       .024612                    
P 19  -8760.989010  21177.280213  13371.875306     11.104900                    
V 19  -2935.047598 -16829.137579  25038.716536       .019147                    
P 20   2333.010957  16946.327999 -20433.354365    124.846126                    
V 20 -24011.182563  -9325.506974 -10484.612839      -.006923                    
P 21  -8311.786598 -13415.736073  21501.807182     75.523976                    
V 21  22622.704271 -14838.141952  -1107.706695      -.005322                    
P 22 -23957.274904 -11470.400944   -872.203241    204.788158                    
V 22    287.915959  -3437.094606  31418.136999       .008202                    
P 23   -883.761842  25967.118678  -4937.013413    316.296040                    
V 23  -3205.815896  -5941.398053 -31305.082266       .032706                    
P 24   5222.063956 -18788.800549  18343.862315     52.325078                    
V 24  19981.911244 -11143.395590 -16985.890257       .030720                    
P 25   2221.610878  17097.583475  20610.398781    488.976681                    
V 25 -19623.052768  16000.769279 -11209.203770       .041365                    
P 26   9111.212341 -18791.483764  15607.105705    120.006066                    
V 26   2943.748315  20693.139493  23076.729287       .116335                    
P 27   8655.238828  12761.827994  22283.407363    152.954860                    
V 27 -20839.711313  16695.643517  -1705.791109       .023873                    
P 28  23220.003884  13117.844804   2458.750198    -11.703750                    
V 28  -3454.268671   1030.049984  31365.704871      -.004876                    
P 30 -11706.412090 -17570.295296 -16506.663905     55.387155                    
V 30  19581.123766   5848.303453 -20429.198271       .013477                    
P 31 -22208.101576   4303.505589 -13776.078832      -.636586                    
V 31  13208.453005 -12109.470321 -24630.364476      -.014985                    
P 32 -23763.132229  -5550.022657  -9823.138408    165.362211                    
V 32 -10333.836211  -8553.032022  28642.724431       .123522                    
EOF
